CCSDS_OEM_VERS = 1.0
CREATION_DATE  = 2017-05-11T11:32:39
ORIGINATOR     = GMAT USER

META_START
OBJECT_NAME          = MOPSSat_alt_35785_km_RAAN_180_035
OBJECT_ID            = SatId
CENTER_NAME          = Earth
REF_FRAME            = EME2000
TIME_SYSTEM          = UTC
START_TIME           = 2017-01-01T00:00:00.000
USEABLE_START_TIME   = 2017-01-01T00:00:00.000
USEABLE_STOP_TIME    = 2017-01-02T00:00:00.000
STOP_TIME            = 2017-01-02T00:00:00.000
INTERPOLATION        = Lagrange
INTERPOLATION_DEGREE = 7 
META_STOP


                                                                                   

2017-01-01T12:13:20.000   4.206778911396361e+04   2.832791325335538e+03  -2.597236491082198e+01  -2.063592096311345e-01   3.067684472125382e+00  -2.682383478789437e-02
2017-01-01T12:13:30.000   4.206571433598275e+04   2.863467414090887e+03  -2.624059644323973e+01  -2.085963639158663e-01   3.067532945256033e+00  -2.682246877235924e-02
2017-01-01T12:13:40.000   4.206361718699335e+04   2.894141979713904e+03  -2.650881424657677e+01  -2.108334069687609e-01   3.067379787096650e+00  -2.682108845969331e-02
2017-01-01T12:13:50.000   4.206149766813718e+04   2.924815005565133e+03  -2.677701817500651e+01  -2.130703375763760e-01   3.067224997730956e+00  -2.681969385064220e-02
2017-01-01T12:14:00.000   4.205935578056162e+04   2.955486475092192e+03  -2.704520808346380e+01  -2.153071545316192e-01   3.067068577243077e+00  -2.681828494595498e-02
2017-01-01T12:14:10.000   4.205719152543100e+04   2.986156371673316e+03  -2.731338382627702e+01  -2.175438566223394e-01   3.066910525718368e+00  -2.681686174639165e-02
2017-01-01T12:14:20.000   4.205500490387779e+04   3.016824679309501e+03  -2.758154526321997e+01  -2.197804426818028e-01   3.066750843239872e+00  -2.681542425269113e-02
2017-01-01T12:14:30.000   4.205279591705123e+04   3.047491381932366e+03  -2.784969225346005e+01  -2.220169115382168e-01   3.066589529891843e+00  -2.681397246560314e-02
2017-01-01T12:14:40.000   4.205056456610674e+04   3.078156463560679e+03  -2.811782465692676e+01  -2.242532620261452e-01   3.066426585758989e+00  -2.681250638588126e-02
2017-01-01T12:14:50.000   4.204831085223165e+04   3.108819907902992e+03  -2.838594233083721e+01  -2.264894929575287e-01   3.066262010928350e+00  -2.681102601429990e-02
2017-01-01T12:15:00.000   4.204603477662709e+04   3.139481698652734e+03  -2.865404513227642e+01  -2.287256031432063e-01   3.066095805487961e+00  -2.680953135164231e-02
2017-01-01T12:15:10.000   4.204373634050655e+04   3.170141819488129e+03  -2.892213291819658e+01  -2.309615913929082e-01   3.065927969526770e+00  -2.680802239869973e-02
2017-01-01T12:15:20.000   4.204141554512105e+04   3.200800253777616e+03  -2.919020554284136e+01  -2.331974564937735e-01   3.065758503136461e+00  -2.680649915628778e-02
2017-01-01T12:15:30.000   4.203907239172654e+04   3.231456984976737e+03  -2.945826286121616e+01  -2.354331972392945e-01   3.065587406409076e+00  -2.680496162522517e-02
2017-01-01T12:15:40.000   4.203670688159663e+04   3.262111996468804e+03  -2.972630472769492e+01  -2.376688124176959e-01   3.065414679437942e+00  -2.680340980634201e-02
2017-01-01T12:15:50.000   4.203431901596836e+04   3.292765272268266e+03  -2.999433100217035e+01  -2.399043008632319e-01   3.065240322313717e+00  -2.680184370044422e-02
2017-01-01T12:16:00.000   4.203190879609631e+04   3.323416796315566e+03  -3.026234154388808e+01  -2.421396614047589e-01   3.065064335128340e+00  -2.680026330834905e-02
2017-01-01T12:16:10.000   4.202947622323891e+04   3.354066552659182e+03  -3.053033621303863e+01  -2.443748928790139e-01   3.064886717974026e+00  -2.679866863087613e-02
2017-01-01T12:16:20.000   4.202702129869464e+04   3.384714524966053e+03  -3.079831486647650e+01  -2.466099940949089e-01   3.064707470945919e+00  -2.679705966887121e-02
2017-01-01T12:16:30.000   4.202454402377266e+04   3.415360696925636e+03  -3.106627736125317e+01  -2.488449638629994e-01   3.064526594139933e+00  -2.679543642318681e-02
2017-01-01T12:16:40.000   4.202204439979936e+04   3.446005052156755e+03  -3.133422355380271e+01  -2.510798009886899e-01   3.064344087653247e+00  -2.679379889468665e-02
2017-01-01T12:16:50.000   4.201952242811716e+04   3.476647574243812e+03  -3.160215330025839e+01  -2.533145042748754e-01   3.064159951584203e+00  -2.679214708424467e-02
2017-01-01T12:17:00.000   4.201697811008174e+04   3.507288246753850e+03  -3.187006645660177e+01  -2.555490725231857e-01   3.063974186032116e+00  -2.679048099274345e-02
2017-01-01T12:17:10.000   4.201441144705914e+04   3.537927053273229e+03  -3.213796287898347e+01  -2.577835045366600e-01   3.063786791097049e+00  -2.678880062107213e-02
2017-01-01T12:17:20.000   4.201182244042551e+04   3.568563977424889e+03  -3.240584242387420e+01  -2.600177991210061e-01   3.063597766879804e+00  -2.678710597012626e-02
2017-01-01T12:17:30.000   4.200921109156251e+04   3.599199002904306e+03  -3.267370494837891e+01  -2.622519550872218e-01   3.063407113481588e+00  -2.678539704080490e-02
2017-01-01T12:17:40.000   4.200657740186592e+04   3.629832113386475e+03  -3.294155030942370e+01  -2.644859712448126e-01   3.063214831004636e+00  -2.678367383401617e-02
2017-01-01T12:17:50.000   4.200392137270878e+04   3.660463292929374e+03  -3.320937836728343e+01  -2.667198464312149e-01   3.063020919549514e+00  -2.678193635065314e-02
2017-01-01T12:18:00.000   4.200124300548543e+04   3.691092525485034e+03  -3.347718898130680e+01  -2.689535794761387e-01   3.062825379218356e+00  -2.678018459162274e-02
2017-01-01T12:18:10.000   4.199854230159531e+04   3.721719795084353e+03  -3.374498201153210e+01  -2.711871692150466e-01   3.062628210113654e+00  -2.677841855783501e-02
2017-01-01T12:18:20.000   4.199581926250565e+04   3.752345085121011e+03  -3.401275731242630e+01  -2.734206144369309e-01   3.062429412342858e+00  -2.677663825024422e-02
2017-01-01T12:18:30.000   4.199307388968896e+04   3.782968379067595e+03  -3.428051473914636e+01  -2.756539139365389e-01   3.062228986013791e+00  -2.677484366980785e-02
2017-01-01T12:18:40.000   4.199030618463874e+04   3.813589660290746e+03  -3.454825414592313e+01  -2.778870665008922e-01   3.062026931235817e+00  -2.677303481749708e-02
2017-01-01T12:18:50.000   4.198751614882795e+04   3.844208912540337e+03  -3.481597539033831e+01  -2.801200709449615e-01   3.061823248116799e+00  -2.677121169426944e-02
2017-01-01T12:19:00.000   4.198470378374308e+04   3.874826119545776e+03  -3.508367832979500e+01  -2.823529260822259e-01   3.061617936765577e+00  -2.676937430109112e-02
2017-01-01T12:19:10.000   4.198186909087619e+04   3.905441265109101e+03  -3.535136282233130e+01  -2.845856307314616e-01   3.061410997291409e+00  -2.676752263893185e-02
2017-01-01T12:19:20.000   4.197901207172680e+04   3.936054333068795e+03  -3.561902872630423e+01  -2.868181837141034e-01   3.061202429804082e+00  -2.676565670876607e-02
2017-01-01T12:19:30.000   4.197613272780456e+04   3.966665307282778e+03  -3.588667590024079e+01  -2.890505838530044e-01   3.060992234414138e+00  -2.676377651157474e-02
2017-01-01T12:19:40.000   4.197323106063289e+04   3.997274171591777e+03  -3.615430420251791e+01  -2.912828299697646e-01   3.060780411233111e+00  -2.676188204834763e-02
2017-01-01T12:19:50.000   4.197030707174917e+04   4.027880909802083e+03  -3.642191349121151e+01  -2.935149208834727e-01   3.060566960373555e+00  -2.675997332008351e-02
2017-01-01T12:20:00.000   4.196736076270977e+04   4.058485505649672e+03  -3.668950362378288e+01  -2.957468554080915e-01   3.060351881949414e+00  -2.675805032779342e-02
2017-01-01T12:20:10.000   4.196439213508051e+04   4.089087942893137e+03  -3.695707445789113e+01  -2.979786323592323e-01   3.060135176075315e+00  -2.675611307249439e-02
2017-01-01T12:20:20.000   4.196140119047789e+04   4.119688204910659e+03  -3.722462584786956e+01  -3.002102505247654e-01   3.059916842869585e+00  -2.675416155523644e-02
2017-01-01T12:20:30.000   4.195838793051957e+04   4.150286275188461e+03  -3.749215764899614e+01  -3.024417087004406e-01   3.059696882450636e+00  -2.675219577707014e-02
2017-01-01T12:20:40.000   4.195535235684251e+04   4.180882137139150e+03  -3.775966971590546e+01  -3.046730056766397e-01   3.059475294938291e+00  -2.675021573905857e-02
2017-01-01T12:20:50.000   4.195229447103352e+04   4.211475774805532e+03  -3.802716190874229e+01  -3.069041402897051e-01   3.059252080448698e+00  -2.674822144223192e-02
2017-01-01T12:21:00.000   4.194921427469824e+04   4.242067172158583e+03  -3.829463408702350e+01  -3.091351113707399e-01   3.059027239099396e+00  -2.674621288763256e-02
2017-01-01T12:21:10.000   4.194611176944609e+04   4.272656313256561e+03  -3.856208611102928e+01  -3.113659177572149e-01   3.058800771008185e+00  -2.674419007630518e-02
2017-01-01T12:21:20.000   4.194298695692722e+04   4.303243181848547e+03  -3.882951783833666e+01  -3.135965582640527e-01   3.058572676295845e+00  -2.674215300932096e-02
2017-01-01T12:21:30.000   4.193983983880595e+04   4.333827761668890e+03  -3.909692912639405e+01  -3.158270317051031e-01   3.058342955084181e+00  -2.674010168776010e-02
2017-01-01T12:21:40.000   4.193667041675939e+04   4.364410036437097e+03  -3.936431983252024e+01  -3.180573368931332e-01   3.058111607495941e+00  -2.673803611271111e-02
2017-01-01T12:21:50.000   4.193347869251103e+04   4.394989989564086e+03  -3.963168981133603e+01  -3.202874726184064e-01   3.057878633657252e+00  -2.673595628529252e-02
2017-01-01T12:22:00.000   4.193026466778681e+04   4.425567604547975e+03  -3.989903891822496e+01  -3.225174376775468e-01   3.057644033694415e+00  -2.673386220662435e-02
2017-01-01T12:22:10.000   4.192702834433196e+04   4.456142864818148e+03  -4.016636700796960e+01  -3.247472308621653e-01   3.057407807735147e+00  -2.673175387783904e-02
2017-01-01T12:22:20.000   4.192376972383825e+04   4.486715754425250e+03  -4.043367394078460e+01  -3.269768510091813e-01   3.057169955903251e+00  -2.672963130003413e-02
